{"type": "FeatureCollection", "features": [ {"type": "Feature", "properties": {"norad_id": 30846, "name": "FENGYUN 1C DEB", "group": "fengyun-1c-debris", "lat": 6.46372541820851, "lon": -11.294846043350029, "alt_km": 785.7423344072349, "timestamp": "2025-12-19T18:58:41.867099+00:00", "meta": {"OBJECT_NAME": "FENGYUN 1C DEB", "OBJECT_ID": "1999-025AWG", "EPOCH": "2025-12-18T10:39:37.281600", "MEAN_MOTION": 14.41571156, "ECCENTRICITY": 0.00539372, "INCLINATION": 99.3205, "RA_OF_ASC_NODE": 166.171, "ARG_OF_PERICENTER": 319.6837, "MEAN_ANOMALY": 69.6658, "EPHEMERIS_TYPE": 0, "CLASSIFICATION_TYPE": "U", "NORAD_CAT_ID": 30846, "ELEMENT_SET_NO": 999, "REV_AT_EPOCH": 98012, "BSTAR": 0.00062349507, "MEAN_MOTION_DOT": 2.011e-05, "MEAN_MOTION_DDOT": 0}, "tle": {"line1": "1 30846U 99025AWG 25352.44418150  .00002011  00000+0  62350-3 0  9992", "line2": "2 30846  99.3205 166.1710 0053937 319.6837  69.6658 14.41571156980122"}}, "geometry": {"type": "Point", "coordinates": [-11.294846043350029, 6.46372541820851]}}, {"type": "Feature", "properties": {"norad_id": 30847, "name": "FENGYUN 1C DEB", "group": "fengyun-1c-debris", "lat": -15.639091658600766, "lon": 156.2836734439668, "alt_km": 801.8590949119007, "timestamp": "2025-12-19T18:58:41.867110+00:00", "meta": {"OBJECT_NAME": "FENGYUN 1C DEB", "OBJECT_ID": "1999-025AWH", "EPOCH": "2025-12-18T09:17:58.177824", "MEAN_MOTION": 14.17062342, "ECCENTRICITY": 0.00654917, "INCLINATION": 98.731, "RA_OF_ASC_NODE": 152.4404, "ARG_OF_PERICENTER": 311.8702, "MEAN_ANOMALY": 77.2271, "EPHEMERIS_TYPE": 0, "CLASSIFICATION_TYPE": "U", "NORAD_CAT_ID": 30847, "ELEMENT_SET_NO": 999, "REV_AT_EPOCH": 96135, "BSTAR": 0.001633648, "MEAN_MOTION_DOT": 3.314e-05, "MEAN_MOTION_DDOT": 0}, "tle": {"line1": "1 30847U 99025AWH 25352.38747891  .00003314  00000+0  16336-2 0  9992", "line2": "2 30847  98.7310 152.4404 0065491 311.8702  77.2271 14.17062342961359"}}, "geometry": {"type": "Point", "coordinates": [156.2836734439668, -15.639091658600766]}}, {"type": "Feature", "properties": {"norad_id": 30848, "name": "FENGYUN 1C DEB", "group": "fengyun-1c-debris", "lat": 12.823297974766781, "lon": 11.045060567956433, "alt_km": 804.2581801286306, "timestamp": "2025-12-19T18:58:41.867121+00:00", "meta": {"OBJECT_NAME": "FENGYUN 1C DEB", "OBJECT_ID": "1999-025AWJ", "EPOCH": "2025-12-18T12:04:06.580416", "MEAN_MOTION": 14.34520207, "ECCENTRICITY": 0.00434855, "INCLINATION": 99.0567, "RA_OF_ASC_NODE": 187.6153, "ARG_OF_PERICENTER": 319.2075, "MEAN_ANOMALY": 40.5855, "EPHEMERIS_TYPE": 0, "CLASSIFICATION_TYPE": "U", "NORAD_CAT_ID": 30848, "ELEMENT_SET_NO": 999, "REV_AT_EPOCH": 97389, "BSTAR": 0.0009556516, "MEAN_MOTION_DOT": 2.677e-05, "MEAN_MOTION_DDOT": 0}, "tle": {"line1": "1 30848U 99025AWJ 25352.50285394  .00002677  00000+0  95565-3 0  9995", "line2": "2 30848  99.0567 187.6153 0043485 319.2075  40.5855 14.34520207973894"}}, "geometry": {"type": "Point", "coordinates": [11.045060567956433, 12.823297974766781]}}, {"type": "Feature", "properties": {"norad_id": 30849, "name": "FENGYUN 1C DEB", "group": "fengyun-1c-debris", "lat": -3.0158903392459764, "lon": -126.54710505020743, "alt_km": 865.3507623725345, "timestamp": "2025-12-19T18:58:41.867131+00:00", "meta": {"OBJECT_NAME": "FENGYUN 1C DEB", "OBJECT_ID": "1999-025AWK", "EPOCH": "2025-12-19T03:01:21.249696", "MEAN_MOTION": 14.18890075, "ECCENTRICITY": 0.00479178, "INCLINATION": 99.048, "RA_OF_ASC_NODE": 53.2557, "ARG_OF_PERICENTER": 347.5328, "MEAN_ANOMALY": 41.5426, "EPHEMERIS_TYPE": 0, "CLASSIFICATION_TYPE": "U", "NORAD_CAT_ID": 30849, "ELEMENT_SET_NO": 999, "REV_AT_EPOCH": 96463, "BSTAR": 0.0010548749, "MEAN_MOTION_DOT": 2.176e-05, "MEAN_MOTION_DDOT": 0}, "tle": {"line1": "1 30849U 99025AWK 25353.12594039  .00002176  00000+0  10549-2 0  9996", "line2": "2 30849  99.0480  53.2557 0047917 347.5328  41.5426 14.18890075964636"}}, "geometry": {"type": "Point", "coordinates": [-126.54710505020743, -3.0158903392459764]}}, {"type": "Feature", "properties": {"norad_id": 30850, "name": "FENGYUN 1C DEB", "group": "fengyun-1c-debris", "lat": 46.604748337663224, "lon": -150.0910664339486, "alt_km": 883.6423896204114, "timestamp": "2025-12-19T18:58:41.867141+00:00", "meta": {"OBJECT_NAME": "FENGYUN 1C DEB", "OBJECT_ID": "1999-025AWL", "EPOCH": "2025-12-19T04:04:58.309248", "MEAN_MOTION": 14.16330369, "ECCENTRICITY": 0.01091792, "INCLINATION": 98.3949, "RA_OF_ASC_NODE": 218.3089, "ARG_OF_PERICENTER": 178.9912, "MEAN_ANOMALY": 306.5749, "EPHEMERIS_TYPE": 0, "CLASSIFICATION_TYPE": "U", "NORAD_CAT_ID": 30850, "ELEMENT_SET_NO": 999, "REV_AT_EPOCH": 95889, "BSTAR": 0.0014325073, "MEAN_MOTION_DOT": 2.973e-05, "MEAN_MOTION_DDOT": 0}, "tle": {"line1": "1 30850U 99025AWL 25353.17011932  .00002973  00000+0  14325-2 0  9990", "line2": "2 30850  98.3949 218.3089 0109179 178.9912 306.5749 14.16330369958894"}}, "geometry": {"type": "Point", "coordinates": [-150.0910664339486, 46.604748337663224]}}, {"type": "Feature", "properties": {"norad_id": 30852, "name": "FENGYUN 1C DEB", "group": "fengyun-1c-debris", "lat": -59.75270831703645, "lon": 176.0548318006192, "alt_km": 829.0816145554072, "timestamp": "2025-12-19T18:58:41.867151+00:00", "meta": {"OBJECT_NAME": "FENGYUN 1C DEB", "OBJECT_ID": "1999-025AWN", "EPOCH": "2025-12-19T00:48:42.990624", "MEAN_MOTION": 14.10295269, "ECCENTRICITY": 0.00560815, "INCLINATION": 98.7332, "RA_OF_ASC_NODE": 10.6037, "ARG_OF_PERICENTER": 216.521, "MEAN_ANOMALY": 143.2131, "EPHEMERIS_TYPE": 0, "CLASSIFICATION_TYPE": "U", "NORAD_CAT_ID": 30852, "ELEMENT_SET_NO": 999, "REV_AT_EPOCH": 96471, "BSTAR": 0.00038006002, "MEAN_MOTION_DOT": 6.41e-06, "MEAN_MOTION_DDOT": 0}, "tle": {"line1": "1 30852U 99025AWN 25353.03383091  .00000641  00000+0  38006-3 0  9998", "line2": "2 30852  98.7332  10.6037 0056081 216.5210 143.2131 14.10295269964717"}}, "geometry": {"type": "Point", "coordinates": [176.0548318006192, -59.75270831703645]}}, {"type": "Feature", "properties": {"norad_id": 30856, "name": "FENGYUN 1C DEB", "group": "fengyun-1c-debris", "lat": -44.50533460943925, "lon": -9.794757626445428, "alt_km": 682.320338268787, "timestamp": "2025-12-19T18:58:41.867161+00:00", "meta": {"OBJECT_NAME": "FENGYUN 1C DEB", "OBJECT_ID": "1999-025AWS", "EPOCH": "2025-12-17T11:17:31.756416", "MEAN_MOTION": 14.4633817, "ECCENTRICITY": 0.00876084, "INCLINATION": 98.1983, "RA_OF_ASC_NODE": 176.1067, "ARG_OF_PERICENTER": 224.5578, "MEAN_ANOMALY": 165.9609, "EPHEMERIS_TYPE": 0, "CLASSIFICATION_TYPE": "U", "NORAD_CAT_ID": 30856, "ELEMENT_SET_NO": 999, "REV_AT_EPOCH": 96594, "BSTAR": 0.0038538132, "MEAN_MOTION_DOT": 0.00014481, "MEAN_MOTION_DDOT": 0}, "tle": {"line1": "1 30856U 99025AWS 25351.47050644  .00014481  00000+0  38538-2 0  9999", "line2": "2 30856  98.1983 176.1067 0087608 224.5578 165.9609 14.46338170965948"}}, "geometry": {"type": "Point", "coordinates": [-9.794757626445428, -44.50533460943925]}}, {"type": "Feature", "properties": {"norad_id": 30857, "name": "FENGYUN 1C DEB", "group": "fengyun-1c-debris", "lat": -14.633865490532305, "lon": 161.66357232808792, "alt_km": 718.2372502111875, "timestamp": "2025-12-19T18:58:41.867172+00:00", "meta": {"OBJECT_NAME": "FENGYUN 1C DEB", "OBJECT_ID": "1999-025AWT", "EPOCH": "2025-12-10T22:20:28.597056", "MEAN_MOTION": 14.51403304, "ECCENTRICITY": 0.0041899, "INCLINATION": 98.9745, "RA_OF_ASC_NODE": 334.5727, "ARG_OF_PERICENTER": 300.5616, "MEAN_ANOMALY": 59.1445, "EPHEMERIS_TYPE": 0, "CLASSIFICATION_TYPE": "U", "NORAD_CAT_ID": 30857, "ELEMENT_SET_NO": 999, "REV_AT_EPOCH": 96697, "BSTAR": 0.0076916, "MEAN_MOTION_DOT": 0.0003112, "MEAN_MOTION_DDOT": 0}, "tle": {"line1": "1 30857U 99025AWT 25344.93088654  .00031120  00000+0  76916-2 0  9996", "line2": "2 30857  98.9745 334.5727 0041899 300.5616  59.1445 14.51403304966970"}}, "geometry": {"type": "Point", "coordinates": [161.66357232808792, -14.633865490532305]}}, {"type": "Feature", "properties": {"norad_id": 30858, "name": "FENGYUN 1C DEB", "group": "fengyun-1c-debris", "lat": 54.05138521718956, "lon": 39.02440644197944, "alt_km": 809.5713670701043, "timestamp": "2025-12-19T18:58:41.867182+00:00", "meta": {"OBJECT_NAME": "FENGYUN 1C DEB", "OBJECT_ID": "1999-025AWU", "EPOCH": "2025-12-19T03:36:14.963616", "MEAN_MOTION": 14.17790526, "ECCENTRICITY": 0.00306843, "INCLINATION": 98.7983, "RA_OF_ASC_NODE": 50.7217, "ARG_OF_PERICENTER": 92.0596, "MEAN_ANOMALY": 295.445, "EPHEMERIS_TYPE": 0, "CLASSIFICATION_TYPE": "U", "NORAD_CAT_ID": 30858, "ELEMENT_SET_NO": 999, "REV_AT_EPOCH": 97071, "BSTAR": 0.00030651386, "MEAN_MOTION_DOT": 5.84e-06, "MEAN_MOTION_DDOT": 0}, "tle": {"line1": "1 30858U 99025AWU 25353.15017319  .00000584  00000+0  30651-3 0  9998", "line2": "2 30858  98.7983  50.7217 0030684  92.0596 295.4450 14.17790526970719"}}, "geometry": {"type": "Point", "coordinates": [39.02440644197944, 54.05138521718956]}}, {"type": "Feature", "properties": {"norad_id": 30859, "name": "FENGYUN 1C DEB", "group": "fengyun-1c-debris", "lat": -27.7325861897222, "lon": -140.4234772174443, "alt_km": 754.6717684639361, "timestamp": "2025-12-19T18:58:41.867192+00:00", "meta": {"OBJECT_NAME": "FENGYUN 1C DEB", "OBJECT_ID": "1999-025AWV", "EPOCH": "2025-12-19T03:06:28.145952", "MEAN_MOTION": 14.49188247, "ECCENTRICITY": 0.00307587, "INCLINATION": 98.9216, "RA_OF_ASC_NODE": 43.6149, "ARG_OF_PERICENTER": 10.8268, "MEAN_ANOMALY": 349.358, "EPHEMERIS_TYPE": 0, "CLASSIFICATION_TYPE": "U", "NORAD_CAT_ID": 30859, "ELEMENT_SET_NO": 999, "REV_AT_EPOCH": 97127, "BSTAR": 0.0019689253, "MEAN_MOTION_DOT": 7.498e-05, "MEAN_MOTION_DDOT": 0}, "tle": {"line1": "1 30859U 99025AWV 25353.12949243  .00007498  00000+0  19689-2 0  9994", "line2": "2 30859  98.9216  43.6149 0030758  10.8268 349.3580 14.49188247971273"}}, "geometry": {"type": "Point", "coordinates": [-140.4234772174443, -27.7325861897222]}}]}